ONEWEB-0708             
1 61613U 24188V   26049.04303046 -.00000392  00000+0 -11585-2 0  9998
2 61613  87.8750  60.0147 0002272  78.6429 281.4953 13.10370367 67692
