[{"OBJECT_NAME":"ONEWEB-0708","OBJECT_ID":"2024-188V","EPOCH":"2026-02-18T01:01:57.831744","MEAN_MOTION":13.10370367,"ECCENTRICITY":0.00022725,"INCLINATION":87.875,"RA_OF_ASC_NODE":60.0147,"ARG_OF_PERICENTER":78.6429,"MEAN_ANOMALY":281.4953,"EPHEMERIS_TYPE":0,"CLASSIFICATION_TYPE":"U","NORAD_CAT_ID":61613,"ELEMENT_SET_NO":999,"REV_AT_EPOCH":6769,"BSTAR":-0.0011585363,"MEAN_MOTION_DOT":-3.92e-6,"MEAN_MOTION_DDOT":0}]
